OBJECT_NAME,OBJECT_ID,EPOCH,MEAN_MOTION,ECCENTRICITY,INCLINATION,RA_OF_ASC_NODE,ARG_OF_PERICENTER,MEAN_ANOMALY,EPHEMERIS_TYPE,CLASSIFICATION_TYPE,NORAD_CAT_ID,ELEMENT_SET_NO,REV_AT_EPOCH,BSTAR,MEAN_MOTION_DOT,MEAN_MOTION_DDOT
AETHER-9,2026-004T,2026-06-18T17:59:11.406912,14.86286508,.0001705,97.8006,168.2460,148.0614,212.0705,0,U,67380,999,2351,.70656E-4,.568E-5,0
AETHER-10,2026-004U,2026-06-18T17:20:22.434432,14.86273358,.0002465,97.8039,168.3517,124.5051,235.6398,0,U,67381,999,2351,.65229E-4,.52E-5,0
AETHER-11,2026-004V,2026-06-18T17:10:41.853216,14.86233934,.0001359,97.8031,168.3431,149.1881,210.9415,0,U,67382,999,2351,.69291E-4,.556E-5,0
AETHER-12,2026-004W,2026-06-18T16:51:29.098368,14.86286867,.00049,97.8008,168.1610,111.4599,248.7140,0,U,67383,999,2350,.69002E-4,.554E-5,0
CAPELLA-19 (ACADIA-9),2026-004X,2026-06-18T13:04:44.615712,14.86645353,.0001386,97.7999,167.8977,89.3596,270.7778,0,U,67384,999,2347,.43066E-3,.377E-4,0
CAPELLA-18 (ACADIA-8),2026-004Y,2026-06-17T22:46:59.469024,14.86659441,.00014717,97.8010,167.4637,94.1792,265.9592,0,U,67385,999,2339,.39270805E-3,.3434E-4,0
TWILIGHT-1 OBJECT Z,2026-004Z,2026-06-18T10:44:37.353984,14.88848975,.0004317,97.7995,168.1683,109.8531,250.3151,0,U,67386,999,2348,.17296E-3,.1566E-4,0
LEMUR-2-KATIE,2026-004AA,2026-06-17T23:03:35.412192,14.90052933,.00048599,97.8034,167.9644,91.4386,268.7388,0,U,67387,999,2342,.28486828E-3,.2696E-4,0
LEMUR-2-HCS-BAZUS,2026-004AB,2026-06-17T23:02:13.185312,14.90078149,.00044365,97.8022,167.9443,88.8187,271.3539,0,U,67388,999,2342,.45831617E-3,.4374E-4,0
HYDRA-2,2026-004AC,2026-06-18T17:07:20.860032,15.18565536,.0002812,97.4580,168.7551,11.4322,348.6975,0,U,67389,999,2398,.25941E-3,.5294E-4,0
CONNECTA IOT-16,2026-004AD,2026-06-18T16:43:43.143168,15.17888523,.0003569,97.4584,168.6258,7.0193,353.1090,0,U,67390,999,2397,.11755E-3,.2315E-4,0
FLAMINGO-1,2026-004AE,2026-06-18T17:43:32.232864,15.17628069,.0004864,97.4545,168.6286,339.5431,20.5608,0,U,67391,999,2398,.9307E-4,.1805E-4,0
HAWK-13A,2026-004AF,2026-06-18T17:01:44.340672,15.19153110,.0004642,97.4434,168.5593,346.4676,13.6433,0,U,67392,999,2399,.16248E-3,.3347E-4,0
HAWK-13C,2026-004AG,2026-06-18T17:01:32.138400,15.19154139,.0004701,97.4580,168.9326,351.5825,8.5330,0,U,67393,999,2399,.16163E-3,.3329E-4,0
TWILIGHT-1 OBJECT AH,2026-004AH,2026-06-18T17:48:40.191840,15.19443093,.00079,97.4490,168.8130,342.8892,17.2075,0,U,67394,999,2400,.18398E-3,.3833E-4,0
PANDORA,2026-004AJ,2026-06-18T17:12:17.851392,14.88075345,.0006656,97.8037,168.3506,116.7745,243.4153,0,U,67395,999,2350,.81561E-4,.696E-5,0
HAWK-13B,2026-004AK,2026-06-18T17:01:23.706624,15.19153975,.0005872,97.4520,168.7766,345.1483,14.9578,0,U,67396,999,2399,.15784E-3,.325E-4,0
CARBSAR,2026-004AL,2026-06-18T18:09:31.429728,15.19594922,.0004842,97.4539,168.9072,351.9015,8.2141,0,U,67397,999,2400,.23702E-3,.4978E-4,0
TOMORROW-S10,2026-004AM,2026-06-17T23:26:59.890848,15.19413954,.00059035,97.4572,168.1866,1.6752,358.4502,0,U,67398,999,2388,.33787598E-3,.7091E-4,0
TOMORROW-S11,2026-004AN,2026-06-18T17:45:38.560896,15.19540394,.0006711,97.4562,168.9809,354.3358,5.7800,0,U,67399,999,2400,.20036E-3,.4192E-4,0
CONNECTA IOT-13,2026-004AP,2026-06-18T17:16:28.737120,15.17968710,.0008334,97.4558,168.6991,357.4254,2.6936,0,U,67400,999,2398,.11935E-3,.2358E-4,0
CONNECTA IOT-14,2026-004AQ,2026-06-18T17:19:21.798048,15.18525770,.000903,97.4504,168.7309,345.6074,14.4902,0,U,67401,999,2399,.12132E-3,.2438E-4,0
CONNECTA IOT-15,2026-004AR,2026-06-18T18:51:47.280960,15.17732972,.000275,97.4562,168.6196,357.5669,2.5551,0,U,67402,999,2397,.116E-3,.2273E-4,0
SHIJIAN-29B (SJ-29B),2025-315C,2026-06-18T15:28:09.653952,1.00270301,.00039597,3.4013,95.0618,34.6791,82.3985,0,U,67403,999,170,0,-.75E-6,0
STARLINK-36484,2026-005A,2026-06-18T20:48:56.912832,15.27596283,.0000598,42.9992,26.2995,144.6173,215.4719,0,U,67404,999,2417,.48042E-3,.12988E-3,0
STARLINK-36452,2026-005B,2026-06-18T08:08:16.582848,15.27610425,.0003486,43.0080,29.2145,271.7099,88.3353,0,U,67405,999,2409,.57683E-3,.1566E-3,0
STARLINK-36409,2026-005C,2026-06-18T07:27:46.923264,15.27600461,.0002853,42.9886,29.8701,273.7104,86.3421,0,U,67406,999,2408,.42547E-3,.11472E-3,0
STARLINK-36510,2026-005D,2026-06-18T21:25:57.108576,15.27592817,.0000677,43.0032,26.4935,259.6320,100.4455,0,U,67407,999,2417,.62065E-3,.16863E-3,0
STARLINK-36509,2026-005E,2026-06-18T21:03:44.791200,15.27600399,.0000587,42.9972,26.3753,238.3668,121.7127,0,U,67408,999,2416,.53787E-3,.14578E-3,0
STARLINK-36507,2026-005F,2026-06-18T07:38:53.697984,15.27578253,.0001242,43.0026,29.9219,272.1120,87.9589,0,U,67409,999,2408,.42246E-3,.1138E-3,0
