AETHER-9                
1 67380U 26004T   26169.74943758  .00000568  00000+0  70656-4 0  9993
2 67380  97.8006 168.2460 0001705 148.0614 212.0705 14.86286508 23516
AETHER-10               
1 67381U 26004U   26169.72248188  .00000520  00000+0  65229-4 0  9995
2 67381  97.8039 168.3517 0002465 124.5051 235.6398 14.86273358 23513
AETHER-11               
1 67382U 26004V   26169.71576219  .00000556  00000+0  69291-4 0  9996
2 67382  97.8031 168.3431 0001359 149.1881 210.9415 14.86233934 23518
AETHER-12               
1 67383U 26004W   26169.70242012  .00000554  00000+0  69002-4 0  9995
2 67383  97.8008 168.1610 0004900 111.4599 248.7140 14.86286867 23509
CAPELLA-19 (ACADIA-9)   
1 67384U 26004X   26169.54496083  .00003770  00000+0  43066-3 0  9991
2 67384  97.7999 167.8977 0001386  89.3596 270.7778 14.86645353 23472
CAPELLA-18 (ACADIA-8)   
1 67385U 26004Y   26168.94929941  .00003434  00000+0  39271-3 0  9999
2 67385  97.8010 167.4637 0001471  94.1792 265.9592 14.86659441 23398
TWILIGHT-1 OBJECT Z     
1 67386U 26004Z   26169.44765456  .00001566  00000+0  17296-3 0  9992
2 67386  97.7995 168.1683 0004317 109.8531 250.3151 14.88848975 23489
LEMUR-2-KATIE           
1 67387U 26004AA  26168.96082653  .00002696  00000+0  28487-3 0  9999
2 67387  97.8034 167.9644 0004859  91.4386 268.7388 14.90052933 23427
LEMUR-2-HCS-BAZUS       
1 67388U 26004AB  26168.95987483  .00004374  00000+0  45832-3 0  9992
2 67388  97.8022 167.9443 0004436  88.8187 271.3539 14.90078149 23427
HYDRA-2                 
1 67389U 26004AC  26169.71343588  .00005294  00000+0  25941-3 0  9991
2 67389  97.4580 168.7551 0002812  11.4322 348.6975 15.18565536 23986
CONNECTA IOT-16         
1 67390U 26004AD  26169.69702712  .00002315  00000+0  11755-3 0  9997
2 67390  97.4584 168.6258 0003569   7.0193 353.1090 15.17888523 23973
FLAMINGO-1              
1 67391U 26004AE  26169.73856751  .00001805  00000+0  93070-4 0  9990
2 67391  97.4545 168.6286 0004864 339.5431  20.5608 15.17628069 23987
HAWK-13A                
1 67392U 26004AF  26169.70954098  .00003347  00000+0  16248-3 0  9995
2 67392  97.4434 168.5593 0004642 346.4676  13.6433 15.19153110 23999
HAWK-13C                
1 67393U 26004AG  26169.70939975  .00003329  00000+0  16163-3 0  9999
2 67393  97.4580 168.9326 0004701 351.5825   8.5330 15.19154139 23990
TWILIGHT-1 OBJECT AH    
1 67394U 26004AH  26169.74213185  .00003833  00000+0  18398-3 0  9994
2 67394  97.4490 168.8130 0007900 342.8892  17.2075 15.19443093 24000
PANDORA                 
1 67395U 26004AJ  26169.71687328  .00000696  00000+0  81561-4 0  9993
2 67395  97.8037 168.3506 0006656 116.7745 243.4153 14.88075345 23506
HAWK-13B                
1 67396U 26004AK  26169.70930216  .00003250  00000+0  15784-3 0  9992
2 67396  97.4520 168.7766 0005872 345.1483  14.9578 15.19153975 23994
CARBSAR                 
1 67397U 26004AL  26169.75661377  .00004978  00000+0  23702-3 0  9994
2 67397  97.4539 168.9072 0004842 351.9015   8.2141 15.19594922 24005
TOMORROW-S10            
1 67398U 26004AM  26168.97708207  .00007091  00000+0  33788-3 0  9996
2 67398  97.4572 168.1866 0005903   1.6752 358.4502 15.19413954 23883
TOMORROW-S11            
1 67399U 26004AN  26169.74002964  .00004192  00000+0  20036-3 0  9991
2 67399  97.4562 168.9809 0006711 354.3358   5.7800 15.19540394 24003
CONNECTA IOT-13         
1 67400U 26004AP  26169.71977705  .00002358  00000+0  11935-3 0  9995
2 67400  97.4558 168.6991 0008334 357.4254   2.6936 15.17968710 23988
CONNECTA IOT-14         
1 67401U 26004AQ  26169.72178007  .00002438  00000+0  12132-3 0  9994
2 67401  97.4504 168.7309 0009030 345.6074  14.4902 15.18525770 23998
CONNECTA IOT-15         
1 67402U 26004AR  26169.78596390  .00002273  00000+0  11600-3 0  9996
2 67402  97.4562 168.6196 0002750 357.5669   2.5551 15.17732972 23979
SHIJIAN-29B (SJ-29B)    
1 67403U 25315C   26169.64455618 -.00000075  00000+0  00000+0 0  9990
2 67403   3.4013  95.0618 0003959  34.6791  82.3985  1.00270301  1705
STARLINK-36484          
1 67404U 26005A   26169.86732538  .00012988  00000+0  48042-3 0  9998
2 67404  42.9992  26.2995 0000598 144.6173 215.4719 15.27596283 24170
STARLINK-36452          
1 67405U 26005B   26169.33908082  .00015660  00000+0  57683-3 0  9991
2 67405  43.0080  29.2145 0003486 271.7099  88.3353 15.27610425 24096
STARLINK-36409          
1 67406U 26005C   26169.31095976  .00011472  00000+0  42547-3 0  9999
2 67406  42.9886  29.8701 0002853 273.7104  86.3421 15.27600461 24081
STARLINK-36510          
1 67407U 26005D   26169.89302209  .00016863  00000+0  62065-3 0  9999
2 67407  43.0032  26.4935 0000677 259.6320 100.4455 15.27592817 24174
STARLINK-36509          
1 67408U 26005E   26169.87760175  .00014578  00000+0  53787-3 0  9990
2 67408  42.9972  26.3753 0000587 238.3668 121.7127 15.27600399 24168
STARLINK-36507          
1 67409U 26005F   26169.31867706  .00011380  00000+0  42246-3 0  9994
2 67409  43.0026  29.9219 0001242 272.1120  87.9589 15.27578253 24084
